{
  "type": "FeatureCollection",
  "features": [
    {
      "type": "Feature",
      "properties": {
        "norad_id": 30493,
        "name": "FENGYUN 1C DEB",
        "group": "fengyun-1c-debris",
        "lat": 43.79988999886896,
        "lon": -1.8093123002049945,
        "alt_km": 941.865890625455,
        "timestamp": "2025-12-04T23:34:05.999342+00:00",
        "meta_object_name": "FENGYUN 1C DEB",
        "meta_object_id": "1999-025AHF",
        "meta_epoch": "2025-12-03T19:24:08.477280",
        "meta_mean_motion": 13.92831911,
        "meta_eccentricity": 0.01820459,
        "meta_inclination": 98.5709,
        "meta_ra_of_asc_node": 168.7881,
        "meta_arg_of_pericenter": 241.4629,
        "meta_mean_anomaly": 134.7169,
        "meta_ephemeris_type": 0,
        "meta_classification_type": "U",
        "meta_norad_cat_id": 30493,
        "meta_element_set_no": 999,
        "meta_rev_at_epoch": 94971,
        "meta_bstar": 0.0047513688,
        "meta_mean_motion_dot": 7.017e-05,
        "meta_mean_motion_ddot": 0,
        "tle_line1": "1 30493U 99025AHF 25337.80843145  .00007017  00000+0  47514-2 0  9994",
        "tle_line2": "2 30493  98.5709 168.7881 0182045 241.4629 134.7169 13.92831911949715"
      },
      "geometry": {
        "type": "Point",
        "coordinates": [
          -1.8093123002049945,
          43.79988999886896
        ]
      }
    },
    {
      "type": "Feature",
      "properties": {
        "norad_id": 30494,
        "name": "FENGYUN 1C DEB",
        "group": "fengyun-1c-debris",
        "lat": 70.66653516983044,
        "lon": -13.273123426645785,
        "alt_km": 1093.3597538890645,
        "timestamp": "2025-12-04T23:34:05.999352+00:00",
        "meta_object_name": "FENGYUN 1C DEB",
        "meta_object_id": "1999-025AHG",
        "meta_epoch": "2025-12-03T08:54:16.401024",
        "meta_mean_motion": 13.79322889,
        "meta_eccentricity": 0.0185497,
        "meta_inclination": 99.2834,
        "meta_ra_of_asc_node": 12.9341,
        "meta_arg_of_pericenter": 246.9804,
        "meta_mean_anomaly": 111.1691,
        "meta_ephemeris_type": 0,
        "meta_classification_type": "U",
        "meta_norad_cat_id": 30494,
        "meta_element_set_no": 999,
        "meta_rev_at_epoch": 94357,
        "meta_bstar": 0.0020822,
        "meta_mean_motion_dot": 2.387e-05,
        "meta_mean_motion_ddot": 0,
        "tle_line1": "1 30494U 99025AHG 25337.37102316  .00002387  00000+0  20822-2 0  9993",
        "tle_line2": "2 30494  99.2834  12.9341 0185497 246.9804 111.1691 13.79322889943574"
      },
      "geometry": {
        "type": "Point",
        "coordinates": [
          -13.273123426645785,
          70.66653516983044
        ]
      }
    },
    {
      "type": "Feature",
      "properties": {
        "norad_id": 30495,
        "name": "FENGYUN 1C DEB",
        "group": "fengyun-1c-debris",
        "lat": -75.70931528512256,
        "lon": 125.43765434728374,
        "alt_km": 836.2069134126978,
        "timestamp": "2025-12-04T23:34:05.999362+00:00",
        "meta_object_name": "FENGYUN 1C DEB",
        "meta_object_id": "1999-025AHH",
        "meta_epoch": "2025-12-03T12:42:43.025760",
        "meta_mean_motion": 12.9432737,
        "meta_eccentricity": 0.05963109,
        "meta_inclination": 102.2617,
        "meta_ra_of_asc_node": 65.1943,
        "meta_arg_of_pericenter": 285.4927,
        "meta_mean_anomaly": 68.1109,
        "meta_ephemeris_type": 0,
        "meta_classification_type": "U",
        "meta_norad_cat_id": 30495,
        "meta_element_set_no": 999,
        "meta_rev_at_epoch": 88554,
        "meta_bstar": 0.0035428862,
        "meta_mean_motion_dot": 2.155e-05,
        "meta_mean_motion_ddot": 0,
        "tle_line1": "1 30495U 99025AHH 25337.52966465  .00002155  00000+0  35429-2 0  9996",
        "tle_line2": "2 30495 102.2617  65.1943 0596310 285.4927  68.1109 12.94327370885544"
      },
      "geometry": {
        "type": "Point",
        "coordinates": [
          125.43765434728374,
          -75.70931528512256
        ]
      }
    },
    {
      "type": "Feature",
      "properties": {
        "norad_id": 30496,
        "name": "FENGYUN 1C DEB",
        "group": "fengyun-1c-debris",
        "lat": -20.30670595057735,
        "lon": -112.81277479046402,
        "alt_km": 662.0098738513725,
        "timestamp": "2025-12-04T23:34:05.999371+00:00",
        "meta_object_name": "FENGYUN 1C DEB",
        "meta_object_id": "1999-025AHJ",
        "meta_epoch": "2025-12-04T05:58:53.241312",
        "meta_mean_motion": 14.94090094,
        "meta_eccentricity": 0.013018,
        "meta_inclination": 98.784,
        "meta_ra_of_asc_node": 243.088,
        "meta_arg_of_pericenter": 124.606,
        "meta_mean_anomaly": 236.7516,
        "meta_ephemeris_type": 0,
        "meta_classification_type": "U",
        "meta_norad_cat_id": 30496,
        "meta_element_set_no": 999,
        "meta_rev_at_epoch": 1017,
        "meta_bstar": 0.0011357,
        "meta_mean_motion_dot": 0.00014298,
        "meta_mean_motion_ddot": 0,
        "tle_line1": "1 30496U 99025AHJ 25338.24922733  .00014298  00000+0  11357-2 0  9992",
        "tle_line2": "2 30496  98.7840 243.0880 0130180 124.6060 236.7516 14.94090094 10176"
      },
      "geometry": {
        "type": "Point",
        "coordinates": [
          -112.81277479046402,
          -20.30670595057735
        ]
      }
    },
    {
      "type": "Feature",
      "properties": {
        "norad_id": 30498,
        "name": "FENGYUN 1C DEB",
        "group": "fengyun-1c-debris",
        "lat": 37.63693774270973,
        "lon": 22.74491024113676,
        "alt_km": 926.8831618302211,
        "timestamp": "2025-12-04T23:34:05.999382+00:00",
        "meta_object_name": "FENGYUN 1C DEB",
        "meta_object_id": "1999-025AHL",
        "meta_epoch": "2025-12-04T09:48:16.591968",
        "meta_mean_motion": 14.05989618,
        "meta_eccentricity": 0.0104919,
        "meta_inclination": 99.2387,
        "meta_ra_of_asc_node": 29.3703,
        "meta_arg_of_pericenter": 178.3563,
        "meta_mean_anomaly": 199.5847,
        "meta_ephemeris_type": 0,
        "meta_classification_type": "U",
        "meta_norad_cat_id": 30498,
        "meta_element_set_no": 999,
        "meta_rev_at_epoch": 95652,
        "meta_bstar": 0.0037465,
        "meta_mean_motion_dot": 6.412e-05,
        "meta_mean_motion_ddot": 0,
        "tle_line1": "1 30498U 99025AHL 25338.40852537  .00006412  00000+0  37465-2 0  9993",
        "tle_line2": "2 30498  99.2387  29.3703 0104919 178.3563 199.5847 14.05989618956526"
      },
      "geometry": {
        "type": "Point",
        "coordinates": [
          22.74491024113676,
          37.63693774270973
        ]
      }
    },
    {
      "type": "Feature",
      "properties": {
        "norad_id": 30500,
        "name": "FENGYUN 1C DEB",
        "group": "fengyun-1c-debris",
        "lat": 79.762281210453,
        "lon": 7.992950927223923,
        "alt_km": 772.287657327588,
        "timestamp": "2025-12-04T23:34:05.999392+00:00",
        "meta_object_name": "FENGYUN 1C DEB",
        "meta_object_id": "1999-025AHN",
        "meta_epoch": "2025-12-03T12:22:57.959904",
        "meta_mean_motion": 14.25003145,
        "meta_eccentricity": 0.00658393,
        "meta_inclination": 99.0728,
        "meta_ra_of_asc_node": 68.6964,
        "meta_arg_of_pericenter": 142.4473,
        "meta_mean_anomaly": 346.6157,
        "meta_ephemeris_type": 0,
        "meta_classification_type": "U",
        "meta_norad_cat_id": 30500,
        "meta_element_set_no": 999,
        "meta_rev_at_epoch": 96550,
        "meta_bstar": 0.0040241554,
        "meta_mean_motion_dot": 9.601e-05,
        "meta_mean_motion_ddot": 0,
        "tle_line1": "1 30500U 99025AHN 25337.51594861  .00009601  00000+0  40242-2 0  9991",
        "tle_line2": "2 30500  99.0728  68.6964 0065839 142.4473 346.6157 14.25003145965502"
      },
      "geometry": {
        "type": "Point",
        "coordinates": [
          7.992950927223923,
          79.762281210453
        ]
      }
    },
    {
      "type": "Feature",
      "properties": {
        "norad_id": 30501,
        "name": "FENGYUN 1C DEB",
        "group": "fengyun-1c-debris",
        "lat": 27.910603877869033,
        "lon": -35.34650664259523,
        "alt_km": 834.2421896332535,
        "timestamp": "2025-12-04T23:34:05.999402+00:00",
        "meta_object_name": "FENGYUN 1C DEB",
        "meta_object_id": "1999-025AHP",
        "meta_epoch": "2025-12-03T11:08:58.771104",
        "meta_mean_motion": 14.25222339,
        "meta_eccentricity": 0.00405934,
        "meta_inclination": 99.0837,
        "meta_ra_of_asc_node": 327.9446,
        "meta_arg_of_pericenter": 230.2055,
        "meta_mean_anomaly": 296.6562,
        "meta_ephemeris_type": 0,
        "meta_classification_type": "U",
        "meta_norad_cat_id": 30501,
        "meta_element_set_no": 999,
        "meta_rev_at_epoch": 96787,
        "meta_bstar": 0.0023931219,
        "meta_mean_motion_dot": 5.63e-05,
        "meta_mean_motion_ddot": 0,
        "tle_line1": "1 30501U 99025AHP 25337.46456911  .00005630  00000+0  23931-2 0  9993",
        "tle_line2": "2 30501  99.0837 327.9446 0040593 230.2055 296.6562 14.25222339967876"
      },
      "geometry": {
        "type": "Point",
        "coordinates": [
          -35.34650664259523,
          27.910603877869033
        ]
      }
    }
  ]
}